[
    {
        "id": "123-s2-546",
        "name": "John Jacobs",
        "items": [
            "bucket, bottle"
        ],
        "address": "1st Cross, 9th Main, abc Apartment",
        "pincode": "512013"
    }, {
        "id": "123-s3-146",
        "name": "David Mire",
        "items": [
            "Bedroom Set"
        ],
        "address": "2nd Cross, BTI Apartment",
        "pincode": "412012"
    }, {
        "id": "223-a1-234",
        "name": "Soloman Marshall",
        "items": [
            "bottle"
        ],
        "address": "Riverbed Apartment",
        "pincode": "412032"
    }, {
        "id": "121-s2-111",
        "name": "Ricky Beno",
        "items": [
            "Mobile Set"
        ],
        "address": "Sunshine City",
        "pincode": "512072"
    }, {
        "id": "123-p2-246",
        "name": "Sikander Singh",
        "items": [
            "Air Conditioner"
        ],
        "address": "Riverbed Apartment",
        "pincode": "412032"
    }, {
        "id": "b23-s2-321",
        "name": "Ross Wheeler",
        "items": [
            "Mobile"
        ],
        "address": "1st Cross, 9th Main, abc Apartement",
        "pincode": "512012"
    }, {
        "id": "113-n2-563",
        "name": "Ben Bish",
        "items": [
            "Kitchen Set",
            "Chair"
        ],
        "address": "Sunshine City",
        "pincode": "512072"
    }, {
        "id": "323-s2-112",
        "name": "John Michael",
        "items": [
            "Refrigerator"
        ],
        "address": "1st Cross, 9th Main, abc Apartement",
        "pincode": "512019"
    }, {
        "id": "abc-34-122",
        "name": "Jason Jordan",
        "items": [
            "Mobile"
        ],
        "address": "Riverbed Apartment",
        "pincode": "412032"
    }, {
        "id": "825-51-1294",
        "name": "Darell Purver",
        "pincode": "507612",
        "address": "4 Katie Place",
        "items": "Kids"
    }, {
        "id": "315-63-2021",
        "name": "Giorgi Baugham",
        "pincode": "47811",
        "address": "7383 Texas Junction",
        "items": "Garden"
    }, {
        "id": "238-34-2612",
        "name": "Warden McGrory",
        "pincode": "2419",
        "address": "9 Village Road",
        "items": "Industrial"
    }, {
        "id": "797-19-1714",
        "name": "Kim Wyrall",
        "pincode": "507621",
        "address": "0 Spaight Lane",
        "items": "Automotive"
    }, {
        "id": "383-35-5732",
        "name": "Debbi Suston",
        "pincode": "2670-755",
        "address": "46 Londonderry Court",
        "items": "Clothing"
    }, {
        "id": "558-47-3732",
        "name": "Sybila Paike",
        "pincode": "507633",
        "address": "09487 Grasskamp Avenue",
        "items": "Games"
    }, {
        "id": "830-71-4751",
        "name": "Hayley Wannop",
        "pincode": "10250",
        "address": "15 Riverside Drive",
        "items": "Jewelery"
    }, {
        "id": "394-98-6175",
        "name": "Dolley Smallwood",
        "pincode": "32505",
        "address": "36824 Cody Pass",
        "items": "Tools"
    }, {
        "id": "636-38-6277",
        "name": "Amandy Corkell",
        "pincode": "507623",
        "address": "714 Cambridge Way",
        "items": "Home"
    }, {
        "id": "561-32-7409",
        "name": "Kristyn Long",
        "pincode": "507667",
        "address": "77735 Forest Place",
        "items": "Home"
    }, {
        "id": "671-72-3910",
        "name": "Robby Giacobbo",
        "pincode": "97615",
        "address": "948 Clyde Gallagher Pass",
        "items": "Clothing"
    }, {
        "id": "296-82-1423",
        "name": "Mufinella Greensite",
        "pincode": "501456",
        "address": "4 Melby Way",
        "items": "Sports"
    }, {
        "id": "665-98-8885",
        "name": "Jessee Newton",
        "pincode": "512076",
        "address": "43 School Hill",
        "items": "Toys"
    }, {
        "id": "272-03-6234",
        "name": "Nona Zaniolini",
        "pincode": "507446",
        "address": "37 Drewry Alley",
        "items": "Music"
    }, {
        "id": "440-92-2253",
        "name": "Meghann Cappineer",
        "pincode": "788-0363",
        "address": "1 Badeau Center",
        "items": "Garden"
    }, {
        "id": "362-89-3112",
        "name": "Leandra Hallums",
        "pincode": "931 52",
        "address": "6 Manley Parkway",
        "items": "Grocery"
    }, {
        "id": "555-44-6557",
        "name": "Elysia Bullan",
        "pincode": "4520-162",
        "address": "574 Pearson Park",
        "items": "Shoes"
    }, {
        "id": "251-49-1132",
        "name": "Salomone Boame",
        "pincode": "510746",
        "address": "471 Cordelia Parkway",
        "items": "Movies"
    }, {
        "id": "519-59-4974",
        "name": "Kipp Scarf",
        "pincode": "14260",
        "address": "8705 Continental Point",
        "items": "Kids"
    }, {
        "id": "272-55-3251",
        "name": "Margalit Filisov",
        "pincode": "4730-010",
        "address": "8171 Butterfield Street",
        "items": "Kids"
    }, {
        "id": "279-84-5853",
        "name": "Bancroft Michael",
        "pincode": "501736",
        "address": "0 Arrowood Terrace",
        "items": "Clothing"
    }, {
        "id": "366-80-9364",
        "name": "Shepperd Wittering",
        "pincode": "530786",
        "address": "967 Crownhardt Terrace",
        "items": "Beauty"
    }, {
        "id": "748-62-1511",
        "name": "Jaimie Pothergill",
        "pincode": "507226",
        "address": "84 Surrey Crossing",
        "items": "Grocery"
    }, {
        "id": "247-19-3061",
        "name": "Kurt Oddie",
        "pincode": "5815",
        "address": "48181 Drewry Court",
        "items": "Music"
    }, {
        "id": "205-18-3840",
        "name": "Zandra Ashby",
        "pincode": "H1V",
        "address": "517 Dexter Park",
        "items": "Games"
    }, {
        "id": "702-90-7036",
        "name": "Albie Jodlkowski",
        "pincode": "105076",
        "address": "29630 Holmberg Park",
        "items": "Clothing"
    }, {
        "id": "503-84-8072",
        "name": "Cecilio Franies",
        "pincode": "925076",
        "address": "3541 Sundown Way",
        "items": "Beauty"
    }, {
        "id": "760-18-0442",
        "name": "Baird Ambrosoli",
        "pincode": "665076",
        "address": "1 Grim Avenue",
        "items": "Movies"
    }, {
        "id": "160-89-2770",
        "name": "Dominique Bever",
        "pincode": "745076",
        "address": "23 Canary Way",
        "items": "Automotive"
    }, {
        "id": "873-98-4957",
        "name": "Lesli Gainor",
        "pincode": "1112",
        "address": "48 Dryden Street",
        "items": "Home"
    }, {
        "id": "153-55-5030",
        "name": "Rici Thaw",
        "pincode": "125076",
        "address": "312 Bunting Way",
        "items": "Sports"
    }, {
        "id": "443-44-4462",
        "name": "Norean Midgely",
        "pincode": "75600-000",
        "address": "29 Shopko Road",
        "items": "Automotive"
    }, {
        "id": "233-44-6993",
        "name": "Maxim Vaudre",
        "pincode": "2189",
        "address": "8 Old Gate Terrace",
        "items": "Grocery"
    }, {
        "id": "184-44-1880",
        "name": "Kayla Fawley",
        "pincode": "501786",
        "address": "82162 Russell Plaza",
        "items": "Grocery"
    }, {
        "id": "662-67-7422",
        "name": "Angelina Verbruggen",
        "pincode": "550796",
        "address": "829 Mallard Trail",
        "items": "Kids"
    }, {
        "id": "408-36-8637",
        "name": "Berte Meiklam",
        "pincode": "407376",
        "address": "9 Graceland Street",
        "items": "Music"
    }, {
        "id": "501-87-2942",
        "name": "Shelden Alywin",
        "pincode": "604526",
        "address": "4239 Oak Valley Way",
        "items": "Games"
    }, {
        "id": "608-34-9021",
        "name": "Megan Atmore",
        "pincode": "6407",
        "address": "10630 Susan Plaza",
        "items": "Grocery"
    }, {
        "id": "599-67-7186",
        "name": "Enoch Siebert",
        "pincode": "52201",
        "address": "1 Boyd Center",
        "items": "Automotive"
    }, {
        "id": "316-98-3497",
        "name": "Seumas Lockhead",
        "pincode": "507610",
        "address": "7 Meadow Vale Way",
        "items": "Garden"
    }
]
